      2.10          N: GNSS NAV DATA                        RINEX VERSION / TYPE
fic2rin                                 08/28/2023 00:17:55 PGM / RUN BY / DATE
                                                            END OF HEADER
15 23  8 27 20  0  0.0  .718394294381D-04  .363797880709D-11  .000000000000D+00
     .850000000000D+02 -.110812500000D+03  .508985487003D-08  .114277755455D+01
    -.563450157642D-05  .153191437712D-01  .112447887659D-04  .515377944183D+04
     .720000000000D+05 -.363215804100D-06  .257557579489D+01  .428408384323D-07
     .933412570529D+00  .155062500000D+03  .123373113751D+01 -.834177603988D-08
     .288940606965D-09  .100000000000D+01  .227700000000D+04  .000000000000D+00
     .240000000000D+01  .000000000000D+00 -.107102096081D-07  .850000000000D+02
     .648000000000D+05  .400000000000D+01
31 23  8 27 20  0  0.0 -.222505535930D-03 -.568434188608D-12  .000000000000D+00
     .990000000000D+02  .182812500000D+02  .503949562951D-08 -.156278502605D+01
     .936910510063D-06  .104082932230D-01  .640004873276D-05  .515360544395D+04
     .720000000000D+05  .130385160446D-06 -.249503578947D+01 -.465661287308D-07
     .954458196329D+00  .251468750000D+03  .573546957413D+00 -.808855120634D-08
     .337514058815D-09  .100000000000D+01  .227700000000D+04  .000000000000D+00
     .240000000000D+01  .000000000000D+00 -.130385160446D-07  .990000000000D+02
     .648000000000D+05  .400000000000D+01
24 23  8 27 20  0  0.0 -.302457716316D-03 -.111413100967D-10  .000000000000D+00
     .640000000000D+02  .210000000000D+02  .563737767655D-08  .298288383400D+00
     .131875276566D-05  .143097726395D-01  .688619911671D-05  .515362939835D+04
     .720000000000D+05 -.707805156708D-07 -.260767849932D+01  .154599547386D-06
     .934099341810D+00  .230718750000D+03  .913752572457D+00 -.863107380458D-08
     .216437586923D-09  .100000000000D+01  .227700000000D+04  .000000000000D+00
     .240000000000D+01  .000000000000D+00  .232830643654D-08  .640000000000D+02
     .648000000000D+05  .400000000000D+01
27 23  8 27 20  0  0.0 -.294875353575D-04 -.659383658785D-11  .000000000000D+00
     .660000000000D+02  .979375000000D+02  .393873549271D-08  .220151837984D+01
     .500865280628D-05  .115787638351D-01  .981800258160D-05  .515367597008D+04
     .720000000000D+05 -.182539224625D-06 -.427077423958D+00 -.169500708580D-06
     .966475532922D+00  .192125000000D+03  .741693200510D+00 -.772925052574D-08
    -.142505935944D-09  .100000000000D+01  .227700000000D+04  .000000000000D+00
     .240000000000D+01  .000000000000D+00  .139698386192D-08  .660000000000D+02
     .648000000000D+05  .400000000000D+01
30 23  8 27 20  0  0.0 -.492911320180D-03  .318323145621D-11  .000000000000D+00
     .810000000000D+02  .194062500000D+02  .546665627961D-08 -.792170458839D+00
     .897794961929D-06  .658282567747D-02  .655651092529D-05  .515376500130D+04
     .720000000000D+05  .119209289551D-06 -.251070255076D+01  .119209289551D-06
     .935538439194D+00  .238937500000D+03 -.254693813042D+01 -.836963434315D-08
     .148934775160D-09  .100000000000D+01  .227700000000D+04  .000000000000D+00
     .240000000000D+01  .000000000000D+00  .372529029846D-08  .810000000000D+02
     .648000000000D+05  .400000000000D+01
20 23  8 27 20  0  0.0  .414968468249D-03 -.204636307899D-11  .000000000000D+00
     .950000000000D+02 -.114937500000D+03  .497342144868D-08  .837537864277D+00
    -.610202550888D-05  .407203077339D-02  .218115746975D-05  .515360998917D+04
     .720000000000D+05 -.558793544769D-08  .150119330613D+01  .987201929092D-07
     .949553203171D+00  .334843750000D+03 -.286352722547D+01 -.855142762986D-08
    -.978612191697D-10  .100000000000D+01  .227700000000D+04  .000000000000D+00
     .240000000000D+01  .000000000000D+00 -.838190317154D-08  .950000000000D+02
     .648000000000D+05  .400000000000D+01
17 23  8 27 20  0  0.0  .723236240447D-03  .341060513165D-12  .000000000000D+00
     .490000000000D+02  .118812500000D+03  .364836625481D-08  .212669488188D+01
     .614300370216D-05  .136814975413D-01  .923499464989D-05  .515357769203D+04
     .720000000000D+05  .266358256340D-06 -.360769163987D+00 -.186264514923D-08
     .973225295037D+00  .202406250000D+03 -.140286026992D+01 -.744173854971D-08
    -.985755346381D-10  .100000000000D+01  .227700000000D+04  .000000000000D+00
     .240000000000D+01  .000000000000D+00 -.111758708954D-07  .490000000000D+02
     .648000000000D+05  .400000000000D+01
11 23  8 27 20  0  0.0 -.340636353940D-03 -.177351466846D-10  .000000000000D+00
     .220000000000D+02  .643125000000D+02  .452161691492D-08  .157245196678D+01
     .314041972160D-05  .108346797060D-02  .704079866409D-06  .515358912468D+04
     .720000000000D+05 -.596046447754D-07  .673885658705D+00 -.186264514923D-07
     .965758428035D+00  .365218750000D+03 -.280956962798D+01 -.843606568171D-08
     .265725354242D-09  .100000000000D+01  .227700000000D+04  .000000000000D+00
     .240000000000D+01  .000000000000D+00 -.838190317154D-08  .534000000000D+03
     .648000000000D+05  .400000000000D+01
23 23  8 27 20  0  0.0  .605098903179D-04  .488853402203D-11  .000000000000D+00
     .520000000000D+02 -.117406250000D+03  .433053752713D-08 -.886274848425D+00
    -.611692667007D-05  .356225087307D-02  .341050326824D-05  .515367630768D+04
     .720000000000D+05  .856816768646D-07  .164281182372D+01 -.651925802231D-07
     .974895134101D+00  .319687500000D+03 -.310124382520D+01 -.813033866124D-08
    -.492877673191D-10  .100000000000D+01  .227700000000D+04  .000000000000D+00
     .240000000000D+01  .000000000000D+00 -.838190317154D-08  .308000000000D+03
     .648000000000D+05  .400000000000D+01
18 23  8 27 20  0  0.0 -.397364608943D-03 -.130739863380D-10  .000000000000D+00
     .233000000000D+03  .696250000000D+02  .431196532495D-08  .130183868578D+00
     .366941094398D-05  .364877877291D-02  .173225998878D-05  .515366080093D+04
     .720000000000D+05  .242143869400D-07  .642656098395D+00  .670552253723D-07
     .974207745469D+00  .351593750000D+03 -.312912916209D+01 -.831641784076D-08
     .306084178206D-09  .100000000000D+01  .227700000000D+04  .000000000000D+00
     .240000000000D+01  .000000000000D+00 -.838190317154D-08  .100100000000D+04
     .648000000000D+05  .400000000000D+01
14 23  8 27 20  0  0.0  .167094636708D-03  .115960574476D-10  .000000000000D+00
     .175000000000D+03  .107812500000D+02  .483555856328D-08 -.147063015621D+01
     .586733222008D-06  .351205107290D-02  .784732401371D-05  .515367068291D+04
     .720000000000D+05 -.186264514923D-08 -.144016793886D+01 -.106170773506D-06
     .947549565700D+00  .224812500000D+03 -.294489574284D+01 -.798568977889D-08
    -.606096674931D-09  .100000000000D+01  .227700000000D+04  .000000000000D+00
     .240000000000D+01  .000000000000D+00 -.791624188423D-08  .687000000000D+03
     .648000000000D+05  .400000000000D+01
22 23  8 27 20  0  0.0  .133353285491D-03 -.750333128963D-11  .000000000000D+00
     .740000000000D+02  .170937500000D+02  .436196740774D-08  .270577748912D+01
     .101141631603D-05  .153827837203D-01  .818073749542D-05  .515360859108D+04
     .720000000000D+05  .210478901863D-06 -.137853883992D+01  .558793544769D-07
     .963129486712D+00  .220750000000D+03 -.119372850722D+01 -.755567186692D-08
    -.740030825254D-09  .100000000000D+01  .227700000000D+04  .000000000000D+00
     .485000000000D+01  .000000000000D+00 -.111758708954D-07  .740000000000D+02
     .648000000000D+05  .400000000000D+01
21 23  8 27 20  0  0.0  .150012783706D-03 -.682121026330D-12  .000000000000D+00
     .850000000000D+02  .926562500000D+02  .434268089009D-08  .214507058125D+01
     .466592609882D-05  .247454919154D-01  .219419598579D-05  .515359025002D+04
     .720000000000D+05  .305473804474D-06  .536827229397D+00  .225380063057D-06
     .961982055694D+00  .332968750000D+03 -.715381423651D+00 -.804069206996D-08
     .964325882329D-11  .100000000000D+01  .227700000000D+04  .000000000000D+00
     .340000000000D+01  .000000000000D+00 -.102445483208D-07  .850000000000D+02
     .648000000000D+05  .400000000000D+01
26 23  8 27 20  0  0.0  .231191981584D-03 -.159161572810D-11  .000000000000D+00
     .870000000000D+02 -.105937500000D+02  .529414909399D-08 -.229824988649D+01
    -.502914190292D-06  .810616288800D-02  .731274485588D-05  .515373431015D+04
     .720000000000D+05 -.223517417908D-07 -.154088965551D+01 -.689178705215D-07
     .932724631839D+00  .223937500000D+03  .464741339782D+00 -.823748598150D-08
    -.503235247482D-09  .100000000000D+01  .227700000000D+04  .000000000000D+00
     .240000000000D+01  .000000000000D+00  .698491930962D-08  .870000000000D+02
     .648000000000D+05  .400000000000D+01
25 23  8 27 20  0  0.0  .464563723654D-03  .216004991671D-11  .000000000000D+00
     .490000000000D+02  .265625000000D+01  .482841540860D-08 -.158374427532D+01
     .122934579849D-06  .111086745746D-01  .768527388573D-05  .515368076324D+04
     .720000000000D+05  .277534127235D-06 -.148345914023D+01  .167638063431D-07
     .951955340990D+00  .227437500000D+03  .105120885550D+01 -.795640284469D-08
    -.705029367303D-09  .100000000000D+01  .227700000000D+04  .000000000000D+00
     .240000000000D+01  .000000000000D+00  .558793544769D-08  .490000000000D+02
     .648000000000D+05  .400000000000D+01
8  23  8 27 19 59 44.0 -.139291398227D-03 -.181898940355D-11  .000000000000D+00
     .630000000000D+02  .904687500000D+02  .412945772278D-08  .213814423907D+01
     .471994280815D-05  .857499986887D-02  .963732600212D-05  .515375110626D+04
     .719840000000D+05 -.128522515297D-06 -.451185054331D+00  .447034835815D-07
     .957534458502D+00  .192968750000D+03  .269879535417D+00 -.783532637279D-08
    -.240724312848D-09  .100000000000D+01  .227700000000D+04  .000000000000D+00
     .240000000000D+01  .000000000000D+00  .512227416039D-08  .630000000000D+02
     .648900000000D+05  .400000000000D+01
